0244P         2022 11 19.9669  3.923967  0.199860   93.4810  354.0086    2.2578  20250411   9.0  4.0  244P/Scotti                                              MPEC 2024-L77
0245P         2026 03 31.2123  2.205453  0.455771  316.5047  316.8858   21.1716  20250411  14.0  4.0  245P/WISE                                                MPEC 2022-CN4
0246P         2020 12  4.2413  3.320577  0.224530  185.6176   74.2439   17.5699  20250411  10.5  4.0  246P/NEAT                                                MPEC 2024-YC7
0247P         2026 10 25.9536  1.484267  0.625573   47.4961   53.9906   13.6581  20250411  16.5  2.0  247P/LINEAR                                              MPEC 2021-F20
0248P         2025 09 14.9259  2.157773  0.639261  209.9795  207.8067    6.3520  20250411  14.0  4.0  248P/Gibbs                                               MPC 75730
0249P         2025 02  1.6946  0.499508  0.819352   65.7444  239.0425    8.3854  20250411  15.5  4.0  249P/LINEAR                                              MPEC 2022-YN2
0250P         2025 05 16.7518  2.272322  0.398551   45.7117   73.3045   13.1524  20250411  14.5  4.0  250P/Larson                                              MPC182890
0251P         2024 02 13.1671  1.741121  0.504238   31.1946  219.3375   23.3882  20250411  16.5  2.0  251P/LINEAR                                              MPEC 2024-TD8
0252P         2026 11  7.7649  1.003771  0.671024  343.3759  190.9060   10.4196  20250411  17.5  4.0  252P/LINEAR                                              MPEC 2021-S45
0253P         2024 10 21.0222  2.026723  0.415009  230.8432  146.8479    4.9442  20250411  14.5  4.0  253P/PANSTARRS                                           MPC182890
0254P         2020 09 28.6791  3.148391  0.318520  219.7341  129.1800   32.5392  20250411  11.0  4.0  254P/McNaught                                            MPEC 2025-GB9
0255P         2027 09 25.4711  0.847250  0.712046  186.0431  275.6366   13.4053  20250411   9.0  4.0  255P/Levy                                                NK   2214
0256P         2023 03 11.9332  2.697840  0.417978  124.0715   81.3266   27.6238  20250411  14.0  2.0  256P/LINEAR                                              MPEC 2024-L77
0257P         2028 01  1.7202  2.152169  0.428797  117.7349  207.7275   20.2161  20250411  11.5  4.0  257P/Catalina                                            MPEC 2023-A50
0258P         2029 08 28.8416  3.469593  0.209492   25.6006  126.2360    6.7511  20250411  13.0  4.0  258P/PANSTARRS                                           MPEC 2021-U31
0259P         2026 08 12.1815  1.804836  0.338725  257.4942   51.3727   15.8982  20250411  15.5  4.0  259P/Garradd                                             MPC106349
0260P         2026 08  4.9779  1.417485  0.608817   18.4920  349.3080   15.0434  20250411  13.5  4.0  260P/McNaught                                            MPEC 2022-O01
0261P         2025 12 27.3746  2.014186  0.422831   67.3644  291.0506    6.0733  20250411  14.0  4.0  261P/Larson                                              MPEC 2021-J28
0262P         2030 12 14.8907  1.263735  0.816031  171.0699  217.8871   29.2539  20250411  13.5  4.0  262P/McNaught-Russell                                    MPC 82322
0263P         2023 01 30.8617  1.234552  0.594019   35.0207  105.5039   11.5267  20250411  18.0  4.0  263P/Gibbs                                               MPEC 2024-L77
0264P         2027 03 15.6068  2.656416  0.340587  341.1272  219.1996   25.1706  20250411  13.0  4.0  264P/Larsen                                              MPC114608
0265P         2021 02  8.8023  1.504869  0.646797   33.5602  342.9251   14.3421  20250411  14.5  4.0  265P/LINEAR                                              MPC 79870
0266P         2026 12  7.2992  2.325300  0.340917   97.7815    4.9476    3.4282  20250411  14.7  4.0  266P/Christensen                                         MPEC 2021-F20
0267P         2024 04 24.8828  1.236422  0.614713  114.2063  228.5725    6.1407  20250411  19.5  4.0  267P/LONEOS                                              MPC114608
0268P         2024 12 18.4759  2.412666  0.474526    0.0146  125.6324   15.6615  20250411  14.0  4.0  268P/Bernardi                                            MPEC 2025-GB9
0269P         2033 07 11.2709  3.999041  0.433467  225.7203  241.7673    7.0841  20250411  10.0  4.0  269P/Jedicke                                             MPEC 2023-J29
0270P         2030 08 16.5445  3.522962  0.470192  209.9181  223.0283    2.9249  20250411   8.0  4.0  270P/Gehrels                                             MPC 88332
0271P         2032 03 21.4431  4.247990  0.395939   36.6079    9.2851    6.8671  20250411  11.0  4.0  271P/van Houten-Lemmon                                   MPC 92277
0272P         2022 07 17.4350  2.429668  0.455471   27.8873  109.4392   18.0819  20250411  16.0  2.0  272P/NEAT                                                MPEC 2023-D41
0273P         2012 12 22.0937  0.814010  0.974512   20.1349  320.3865  136.3881  20250411  11.5  4.0  273P/Pons-Gambart                                        MPC 82723
0274P         2022 04  9.0953  2.450944  0.440221   38.4901   81.3178   15.8208  20250411  13.0  4.0  274P/Tombaugh-Tenagra                                    MPEC 2024-GJ3
0275P         2026 10 28.0232  1.659029  0.713708  173.8983  348.6871   21.2550  20250411  17.0  4.0  275P/Hermann                                             MPC 81862
0276P         2024 12 10.8551  3.898667  0.272791  199.3058  211.3032   14.7851  20250411  11.5  4.0  276P/Vorobjov                                            MPEC 2025-GB9
0277P         2028 07 25.7563  1.902037  0.506425  152.4333  276.2603   16.7927  20250411  15.1  4.0  277P/LINEAR                                              MPEC 2021-F20
0278P         2027 09 16.0586  2.008155  0.449447  239.5404   13.3824    6.6174  20250411  14.0  4.0  278P/McNaught                                            MPEC 2021-S45
0279P         2023 04 18.7934  2.143330  0.399390    5.6492  346.1037    5.0523  20250411  14.0  4.0  279P/LaSagra                                             MPEC 2024-A43
0280P         2023 08  4.4086  2.638830  0.416808  104.6474  131.3777   11.7753  20250411  12.5  4.0  280P/Larsen                                              MPEC 2024-RQ6
0281P         2023 02  4.0068  4.036500  0.173916   26.9816   87.1658    4.7177  20250411  11.0  4.0  281P/MOSS                                                MPEC 2023-D41
0282P         2021 10 22.8266  3.440777  0.187651    9.1105  217.6077    5.8136  20250411  13.5  2.0  282P                                                     MPC133426
0283P         2021 09  8.1707  2.128351  0.484900   22.1443  161.1228   14.4677  20250411  16.0  2.0  283P/Spacewatch                                          MPEC 2022-K19
0284P         2028 10  1.6601  2.301613  0.374357  202.4689  144.2650   11.8533  20250411  13.0  4.0  284P/McNaught                                            MPEC 2024-D33
0285P         2023 01 11.8802  1.720594  0.618113  178.3881  185.5132   25.0331  20250411  15.0  4.0  285P/LINEAR                                              MPEC 2024-L77
0286P         2022 05 12.1942  2.327771  0.429920   24.1749  283.5733   17.2066  20250411  14.0  4.0  286P/Christensen                                         MPEC 2024-LE0
0287P         2023 07  9.7134  3.041621  0.272850  190.1389  138.7732   16.3274  20250411  13.5  4.0  287P/Christensen                                         MPEC 2025-A40
0288P         2027 06 28.9792  2.441332  0.199665  280.2951   83.1055    3.2383  20250411  16.0  2.0  288P                                                     MPC133426
0289P         2025 04 14.3195  0.954340  0.686478    9.8783   68.8913    5.9002  20250411  19.0  4.0  289P/Blanpain                                            MPEC 2024-O39
0290P         2029 07 22.2259  2.310280  0.628213  181.8528  302.6741   20.0463  20250411  10.5  4.0  290P/Jager                                               MPC 95214
0291P         2023 05  4.0233  2.567094  0.433916  173.5598  237.6611    6.3097  20250411  13.0  4.0  291P/NEAT                                                MPEC 2024-YC7
0292P         2029 03  3.5961  2.499916  0.589919  319.6581   90.8953   24.3225  20250411  12.5  4.0  292P/Li                                                  MPEC 2022-K19
0293P         2027 11 29.0376  2.111737  0.419501   40.9783   78.3632    9.0612  20250411  14.5  4.0  293P/Spacewatch                                          MPEC 2022-L66
0294P         2025 08 11.1891  1.273087  0.601029  237.5790  309.6009   17.7422  20250411  15.5  4.0  294P/LINEAR                                              MPC182890
0295P         2026 07 22.7203  2.026176  0.617644   73.0355    7.3822   21.0841  20250411  12.0  4.0  295P/LINEAR                                              MPEC 2022-K19
0296P         2027 03 20.6685  1.788356  0.485311  350.1380  263.5324   25.3802  20250411  14.0  4.0  296P/Garradd                                             MPEC 2021-N06
0297P         2027 10 14.3256  2.539039  0.287848  142.2819   92.1807   11.2415  20250411  15.0  4.0  297P/Beshore                                             MPC102956
0298P         2027 06 24.8117  2.200034  0.386874  100.6161   52.7876    7.8721  20250411  15.0  4.0  298P/Christensen                                         MPC114609
0299P         2024 04 30.0463  3.155914  0.280927  323.6256  271.5806   10.4690  20250411  11.5  4.0  299P/Catalina-PANSTARRS                                  MPEC 2024-TD8
0300P         2023 04 11.0093  0.830507  0.692005  222.8835   95.6218    5.6765  20250411  16.0  4.0  300P/Catalina                                            MPEC 2023-VM5
0301P         2028 05 17.2403  2.380003  0.586173  193.4387  351.0640   10.3290  20250411  13.0  4.0  301P/LINEAR-NEAT                                         MPC 89014
